{"fetched_at":"2026-03-29T16:36:15Z","count":15609,"tles":[{"name":"STARLINK-35650","line1":"1 66573U 25268S   26087.76176954  .00028620  00000+0  10445-2 0  9991","line2":"2 66573  42.9974 239.6118 0001788 264.7703  95.2945 15.27610416 20871","category":"Starlink"}]}