{
  "norad_id": 66573,
  "name": "STARLINK-35650",
  "history": [
    {
      "epoch": "2026-03-28T18:16:56.888256Z",
      "apogee_km": 484.18519656020544,
      "perigee_km": 481.7308456492565,
      "latitude_deg": 3.5599220535544934e-05,
      "longitude_deg": 139.1972333752091,
      "height_km": 482.8465721221711,
      "semi_major_axis_km": 6861.095021104731,
      "eccentricity": 0.00017886,
      "inclination_deg": 42.9974,
      "raan_deg": 239.6118,
      "arg_perigee_deg": 264.7703,
      "mean_anomaly_deg": 95.2945,
      "mean_motion_rev_day": 15.27610416
    }
  ]
}